GLOBALSTAR M045         
1 25676U 99019A   24254.72161778 -.00000035  00000+0  51772-3 0  9993
2 25676  51.9998  21.7948 0001016  82.0091  65.8168 12.27045089159083
GLOBALSTAR M019         
1 25677U 99019B   24254.96740346 -.00000020  00000+0  73277-3 0  9992
2 25677  51.9876 131.8152 0001659  92.0299   9.1418 12.13863583151233
GLOBALSTAR M025         
1 25770U 99031A   24254.80005567 -.00000049  00000+0  56010-3 0  9999
2 25770  51.9801  86.4885 0002197  51.6822  39.7639 11.22554115450338
GLOBALSTAR M049         
1 25771U 99031B   24254.81609135 -.00000090  00000+0 -87061-3 0  9999
2 25771  51.9860 107.1764 0002386 274.4182  85.6342 11.12109811 86340
GLOBALSTAR M047         
1 25772U 99031C   24254.83181520 -.00000055  00000+0  41174-3 0  9990
2 25772  51.9819 130.7999 0016404 140.1283 220.0730 11.31922928439479
GLOBALSTAR M052         
1 25773U 99031D   24254.88600619  .00000003  00000+0  23117-2 0  9999
2 25773  51.9835 219.6217 0002724  61.0398 321.8268 11.15053820447356
